TECHDEMOSAT-1 (TDS-1)   
1 40076U 14037H   26068.92236573  .00011104  00000+0  65800-3 0  9999
2 40076  98.3776  51.4583 0004745 234.8100 125.2683 15.11581991633227
STARLINK-5045           
1 53900U 22119Q   26068.98098771 -.00000106  00000+0  11409-4 0  9999
2 53900  53.2201 322.4523 0001275  94.5813 265.5325 15.08825167191730
