[{"OBJECT_NAME":"TECHDEMOSAT-1 (TDS-1)","OBJECT_ID":"2014-037H","EPOCH":"2026-03-09T22:08:12.399936","MEAN_MOTION":15.11581991,"ECCENTRICITY":0.0004745,"INCLINATION":98.3776,"RA_OF_ASC_NODE":51.4583,"ARG_OF_PERICENTER":234.81,"MEAN_ANOMALY":125.2683,"EPHEMERIS_TYPE":0,"CLASSIFICATION_TYPE":"U","NORAD_CAT_ID":40076,"ELEMENT_SET_NO":999,"REV_AT_EPOCH":63322,"BSTAR":0.00065800271,"MEAN_MOTION_DOT":0.00011104,"MEAN_MOTION_DDOT":0},{"OBJECT_NAME":"STARLINK-5045","OBJECT_ID":"2022-119Q","EPOCH":"2026-03-09T23:32:37.338144","MEAN_MOTION":15.08825167,"ECCENTRICITY":0.00012746,"INCLINATION":53.2201,"RA_OF_ASC_NODE":322.4523,"ARG_OF_PERICENTER":94.5813,"MEAN_ANOMALY":265.5325,"EPHEMERIS_TYPE":0,"CLASSIFICATION_TYPE":"U","NORAD_CAT_ID":53900,"ELEMENT_SET_NO":999,"REV_AT_EPOCH":19173,"BSTAR":1.1409143e-5,"MEAN_MOTION_DOT":-1.06e-6,"MEAN_MOTION_DDOT":0}]
